#aV2021  3  1  0  0  0.00000000     288 DD+AD WGS84 FIT  NGA
## 2147  86400.00000000   300.00000000 59274 0.0000000000000
+   32     1  2  3  4  5  6  7  8  9 10 11 12 13 14 15 16 17
+         18 19 20 21 22 23 24 25 26 27 28 29 30 31 32  0  0
+          0  0  0  0  0  0  0  0  0  0  0  0  0  0  0  0  0
+          0  0  0  0  0  0  0  0  0  0  0  0  0  0  0  0  0
+          0  0  0  0  0  0  0  0  0  0  0  0  0  0  0  0  0
++         2  2  2  2  2  2  2  2  2  2  2  2  2  2  2  2  2
++         2  2  2  2  2  2  2  2  2  2  2  2  2  2  2  0  0
++         0  0  0  0  0  0  0  0  0  0  0  0  0  0  0  0  0
++         0  0  0  0  0  0  0  0  0  0  0  0  0  0  0  0  0
++         0  0  0  0  0  0  0  0  0  0  0  0  0  0  0  0  0
%c cc cc ccc ccc cccc cccc cccc cccc ccccc ccccc ccccc ccccc
%c cc cc ccc ccc cccc cccc cccc cccc ccccc ccccc ccccc ccccc
%f  0.0000000  0.000000000  0.00000000000  0.000000000000000
%f  0.0000000  0.000000000  0.00000000000  0.000000000000000
%i    0    0    0    0      0      0      0      0         0
%i    0    0    0    0      0      0      0      0         0
/*      NGA, ST. LOUIS,MO.                                  
/*   EPHEMERIS COMPUTED FROM 2 DAYS OF DATA                 
/*   EPOCHA v5 SMOOTHER                                     
/*   G2139 IERS2010 SATAF SATAPC                            
*  2021  3  1  4 30  0.00000000
P  1  11590.142691  13487.692466 -20083.257859    751.249880                    
V  1 -24804.447622    449.301559 -13852.850566     -0.082677                    
P  2  13442.029673 -14079.700108  18743.802727   -581.668869                    
V  2  22479.595047   -336.601244 -16950.489167     -0.038087                    
P  3  12972.717415  23239.465519   -516.926814    -95.745126                    
V  3  -2437.650074    758.812970 -31841.817679     -0.103245                    
P  4   3036.678877  19121.062282  18163.400653   -183.394011                    
V  4 -13550.325201  18742.153870 -17523.235240     -0.024669                    
P  5    249.251934 -20987.917384  16017.024153    -34.979029                    
V  5  12805.071877  16412.718337  21288.855952     -0.010280                    
P  6  24103.917454  -6237.200979   9394.780749     -1.166049                    
V  6  11789.852830   1878.417404 -29148.538258      0.015411                    
P  7  23705.595687   7554.254322  10295.901800     74.984485                    
V  7 -12462.780252   2168.224848  27540.644282      0.128277                    
P  8  -2441.008050  22854.498331 -13037.450794    -12.039611                    
V  8 -10089.894860  13456.522124  25766.306413     -0.013733                    
P  9  12693.938628   8691.553337  21588.713978   -327.183295                    
V  9 -13556.781508  24023.619859  -1717.748054     -0.033596                    
P 10 -17138.530808  -1907.353832 -20162.404508    -71.571689                    
V 10 -12151.036292 -22724.321805  12150.278533     -0.080381                    
P 11   3931.364872  16292.751586 -21097.033138    -11.417779                    
V 11 -23152.611208  11664.990317   4427.300829      0.106292                    
P 12  -8666.600889 -24839.936642  -4476.029703     -7.674234                    
V 12   4286.158555   3852.409903 -31286.782447     -0.052751                    
P 13  12344.271587 -22727.375786  -5881.892066    102.620096                    
V 13   6487.419649  -4242.028378  30830.622441      0.043778                    
P 14  17473.254610   3668.196282 -19679.390353     99.205104                    
V 14  10378.386278  22743.842452  13449.037166      0.012176                    
P 15   -833.582724 -22990.704009 -13313.117748   -166.190183                    
V 15   9484.056889 -13924.398458  24459.189952      0.025937                    
P 16  -4096.355778  19243.681813  17371.928031   -287.217632                    
V 16 -11124.058625 -19847.593198  19552.256817     -0.057368                    
P 17  18743.245987  -8770.712486 -16217.174655    402.178629                    
V 17 -10477.573500  18676.902249 -21645.536353      0.063969                    
P 18 -25056.824498  -5428.337901   7049.568597    349.190436                    
V 18   8989.423437  -2242.647545  30150.003927      0.013217                    
P 19  19472.126716 -14783.266532 -10543.248003    -32.258169                    
V 19  -6093.592511  11608.437308 -28381.645234      0.050153                    
P 20 -20619.559509 -12109.541488 -11896.372960    524.471904                    
V 20  -7077.877805 -13486.001767  25837.457229     -0.001815                    
P 21   3264.327771  14734.767718 -21150.953889     99.507516                    
V 21 -28513.637439   2136.997494  -2383.899010      0.031203                    
P 22   8450.618397  23491.971115  -9114.357687   -669.782614                    
V 22  -9501.495409  -7772.476556 -28052.911315      0.077781                    
P 23 -18938.032260 -12431.100517 -13919.721992    118.265417                    
V 23  -7409.257121 -16120.886944  24474.139460     -0.003619                    
P 24  -6299.996801 -15204.746823 -21140.130534      1.706552                    
V 24  26238.286978  -2270.190882  -5864.772799     -0.005464                    
P 25 -17275.211334 -18542.091592   8150.080165     89.964915                    
V 25  -3218.106559 -10413.179598 -29297.484384      0.075792                    
P 26 -11239.123619  11118.471607  21266.263209     51.707777                    
V 26 -15036.308279 -22700.472312   4176.489444      0.054449                    
P 27 -12043.160848  23382.940024  -1870.290713    -85.466528                    
V 27  -3357.100223    601.913762  32237.712759     -0.072803                    
P 28  15964.319660   1239.014884 -20595.118072    608.759219                    
V 28  10595.953024  25340.739477   9666.162075     -0.055193                    
P 29 -11510.998247  -9135.958088  22081.001544   -303.672840                    
V 29  15842.794018 -23171.363782  -1363.914991     -0.069519                    
P 30  26618.803465   -546.310330  -1746.157914   -391.832029                    
V 30   2172.850212   3427.781791  30968.083316     -0.056205                    
P 31 -22999.560194   7470.165504  11422.660811   -102.918452                    
V 31 -14408.266415  -2578.592120 -26674.034400     -0.022576                    
P 32 -18589.090065  10500.225193 -15592.154110     20.174719                    
V 32   8032.017777 -18503.768491 -22062.925099      0.010016                    
EOF
